STARLINK-2040           
1 47656U 21012AN  26068.22711523 -.00000336  00000+0  67919-6 0  9999
2 47656  53.1596  51.6846 0001395  87.6283 272.4877 15.29358641280226
COSMOS 2588             
1 64095U 25109A   26068.81179522  .00009169  00000+0  32611-3 0  9998
2 64095  72.9704  73.5401 0005019 308.6780  51.3966 15.29122656 44425
